     2.11           N: GPS NAV DATA                         RINEX VERSION / TYPE
teqc  2019Feb25                         20221121 12:26:25UTCPGM / RUN BY / DATE
OSX ker:10.11.6|Core i5|gcc 4.3 -m64|OSX ker:10.10+|=+      COMMENT
    5.5879D-09  1.4901D-08 -5.9605D-08 -1.1921D-07          ION ALPHA
    7.7824D+04  3.2768D+04 -6.5536D+04 -2.6214D+05          ION BETA
   -9.313225746155D-10-1.776356839400D-15   589824     1545 DELTA-UTC: A0,A1,T,W
                                                            END OF HEADER
28 09  8 19 23 59 44.0-2.621114253998D-05 0.000000000000D+00 0.000000000000D+00
    5.000000000000D+00-1.241250000000D+02 4.495544400326D-09-1.462562259554D+00
   -6.210058927536D-06 1.501654530875D-02 6.500631570816D-06 5.153651647568D+03
    3.455840000000D+05 2.607703208923D-07 2.319425523280D+00 2.309679985046D-07
    9.674636155886D-01 2.502500000000D+02-2.018658991764D+00-8.133553080847D-09
   -2.867976605595D-10 1.000000000000D+00 1.545000000000D+03 0.000000000000D+00
    2.000000000000D+00 0.000000000000D+00-1.071020960808D-08 5.000000000000D+00
    3.432360000000D+05 4.000000000000D+00
